{"type": "FeatureCollection", "features": [ {"type": "Feature", "properties": {"norad_id": 39155, "name": "COSMOS 2485 (747)", "group": "glo-ops", "lat": -9.413719573653786, "lon": 75.14127186465967, "alt_km": 19162.71127665649, "timestamp": "2025-12-23T20:42:37.336616+00:00", "meta": {"OBJECT_NAME": "COSMOS 2485 (747)", "OBJECT_ID": "2013-019A", "EPOCH": "2025-12-22T11:14:56.157792", "MEAN_MOTION": 2.13103251, "ECCENTRICITY": 0.00249447, "INCLINATION": 65.3184, "RA_OF_ASC_NODE": 79.5401, "ARG_OF_PERICENTER": 230.2875, "MEAN_ANOMALY": 129.5355, "EPHEMERIS_TYPE": 0, "CLASSIFICATION_TYPE": "U", "NORAD_CAT_ID": 39155, "ELEMENT_SET_NO": 999, "REV_AT_EPOCH": 9851, "BSTAR": 0, "MEAN_MOTION_DOT": -2e-08, "MEAN_MOTION_DDOT": 0}, "tle": {"line1": "1 39155U 13019A   25356.46870553 -.00000002  00000+0  00000+0 0  9997", "line2": "2 39155  65.3184  79.5401 0024944 230.2875 129.5355  2.13103251 98519"}}, "geometry": {"type": "Point", "coordinates": [75.14127186465967, -9.413719573653786]}}, {"type": "Feature", "properties": {"norad_id": 39620, "name": "COSMOS 2492 (754)", "group": "glo-ops", "lat": 19.377882081362905, "lon": -30.85748431737095, "alt_km": 19114.17861512925, "timestamp": "2025-12-23T20:42:37.336627+00:00", "meta": {"OBJECT_NAME": "COSMOS 2492 (754)", "OBJECT_ID": "2014-012A", "EPOCH": "2025-12-21T22:59:34.433088", "MEAN_MOTION": 2.13103396, "ECCENTRICITY": 0.00142426, "INCLINATION": 65.4026, "RA_OF_ASC_NODE": 319.9579, "ARG_OF_PERICENTER": 313.3292, "MEAN_ANOMALY": 46.5466, "EPHEMERIS_TYPE": 0, "CLASSIFICATION_TYPE": "U", "NORAD_CAT_ID": 39620, "ELEMENT_SET_NO": 999, "REV_AT_EPOCH": 9146, "BSTAR": 0, "MEAN_MOTION_DOT": -4.2e-07, "MEAN_MOTION_DDOT": 0}, "tle": {"line1": "1 39620U 14012A   25355.95803742 -.00000042  00000+0  00000+0 0  9991", "line2": "2 39620  65.4026 319.9579 0014242 313.3292  46.5466  2.13103396 91463"}}, "geometry": {"type": "Point", "coordinates": [-30.85748431737095, 19.377882081362905]}}, {"type": "Feature", "properties": {"norad_id": 40001, "name": "COSMOS 2500 (755)", "group": "glo-ops", "lat": -58.286550538808896, "lon": -172.37383366582344, "alt_km": 19118.81244368481, "timestamp": "2025-12-23T20:42:37.336638+00:00", "meta": {"OBJECT_NAME": "COSMOS 2500 (755)", "OBJECT_ID": "2014-032A", "EPOCH": "2025-12-21T04:35:55.026240", "MEAN_MOTION": 2.13106227, "ECCENTRICITY": 0.00077299, "INCLINATION": 65.3386, "RA_OF_ASC_NODE": 319.7453, "ARG_OF_PERICENTER": 219.3736, "MEAN_ANOMALY": 140.5635, "EPHEMERIS_TYPE": 0, "CLASSIFICATION_TYPE": "U", "NORAD_CAT_ID": 40001, "ELEMENT_SET_NO": 999, "REV_AT_EPOCH": 8966, "BSTAR": 0, "MEAN_MOTION_DOT": -4.7e-07, "MEAN_MOTION_DDOT": 0}, "tle": {"line1": "1 40001U 14032A   25355.19160910 -.00000047  00000+0  00000+0 0  9992", "line2": "2 40001  65.3386 319.7453 0007729 219.3736 140.5635  2.13106227 89663"}}, "geometry": {"type": "Point", "coordinates": [-172.37383366582344, -58.286550538808896]}}, {"type": "Feature", "properties": {"norad_id": 40315, "name": "COSMOS 2501 (702K)", "group": "glo-ops", "lat": 43.18457488306585, "lon": -135.77046591773987, "alt_km": 19171.17969218157, "timestamp": "2025-12-23T20:42:37.336650+00:00", "meta": {"OBJECT_NAME": "COSMOS 2501 (702K)", "OBJECT_ID": "2014-075A", "EPOCH": "2025-12-19T02:31:27.452640", "MEAN_MOTION": 2.13101513, "ECCENTRICITY": 0.0020099, "INCLINATION": 63.6146, "RA_OF_ASC_NODE": 196.6046, "ARG_OF_PERICENTER": 204.1838, "MEAN_ANOMALY": 155.7988, "EPHEMERIS_TYPE": 0, "CLASSIFICATION_TYPE": "U", "NORAD_CAT_ID": 40315, "ELEMENT_SET_NO": 999, "REV_AT_EPOCH": 8601, "BSTAR": 0, "MEAN_MOTION_DOT": 1.06e-06, "MEAN_MOTION_DDOT": 0}, "tle": {"line1": "1 40315U 14075A   25353.10517885  .00000106  00000+0  00000+0 0  9998", "line2": "2 40315  63.6146 196.6046 0020099 204.1838 155.7988  2.13101513 86014"}}, "geometry": {"type": "Point", "coordinates": [-135.77046591773987, 43.18457488306585]}}, {"type": "Feature", "properties": {"norad_id": 41330, "name": "COSMOS 2514 (751)", "group": "glo-ops", "lat": 53.323149535538, "lon": -2.498903111072098, "alt_km": 19151.41853254845, "timestamp": "2025-12-23T20:42:37.336661+00:00", "meta": {"OBJECT_NAME": "COSMOS 2514 (751)", "OBJECT_ID": "2016-008A", "EPOCH": "2025-12-22T20:14:18.279168", "MEAN_MOTION": 2.13102647, "ECCENTRICITY": 0.00116826, "INCLINATION": 65.1279, "RA_OF_ASC_NODE": 319.0581, "ARG_OF_PERICENTER": 220.1101, "MEAN_ANOMALY": 139.8009, "EPHEMERIS_TYPE": 0, "CLASSIFICATION_TYPE": "U", "NORAD_CAT_ID": 41330, "ELEMENT_SET_NO": 999, "REV_AT_EPOCH": 7686, "BSTAR": 0, "MEAN_MOTION_DOT": -3.8e-07, "MEAN_MOTION_DDOT": 0}, "tle": {"line1": "1 41330U 16008A   25356.84326712 -.00000038  00000+0  00000+0 0  9990", "line2": "2 41330  65.1279 319.0581 0011682 220.1101 139.8009  2.13102647 76868"}}, "geometry": {"type": "Point", "coordinates": [-2.498903111072098, 53.323149535538]}}, {"type": "Feature", "properties": {"norad_id": 42939, "name": "COSMOS 2522 (752)", "group": "glo-ops", "lat": -5.617822315056911, "lon": 20.598520486607686, "alt_km": 19118.37997245856, "timestamp": "2025-12-23T20:42:37.336672+00:00", "meta": {"OBJECT_NAME": "COSMOS 2522 (752)", "OBJECT_ID": "2017-055A", "EPOCH": "2025-12-22T05:05:46.710816", "MEAN_MOTION": 2.13102066, "ECCENTRICITY": 0.00062992, "INCLINATION": 64.0765, "RA_OF_ASC_NODE": 197.9063, "ARG_OF_PERICENTER": 223.6863, "MEAN_ANOMALY": 136.3303, "EPHEMERIS_TYPE": 0, "CLASSIFICATION_TYPE": "U", "NORAD_CAT_ID": 42939, "ELEMENT_SET_NO": 999, "REV_AT_EPOCH": 6420, "BSTAR": 0, "MEAN_MOTION_DOT": 9.5e-07, "MEAN_MOTION_DDOT": 0}, "tle": {"line1": "1 42939U 17055A   25356.21234619  .00000095  00000+0  00000+0 0  9996", "line2": "2 42939  64.0765 197.9063 0006299 223.6863 136.3303  2.13102066 64200"}}, "geometry": {"type": "Point", "coordinates": [20.598520486607686, -5.617822315056911]}}, {"type": "Feature", "properties": {"norad_id": 43508, "name": "COSMOS 2527 (756)", "group": "glo-ops", "lat": -32.55455967270267, "lon": -83.31151229736876, "alt_km": 19111.675506829066, "timestamp": "2025-12-23T20:42:37.336683+00:00", "meta": {"OBJECT_NAME": "COSMOS 2527 (756)", "OBJECT_ID": "2018-053A", "EPOCH": "2025-12-23T02:40:53.485824", "MEAN_MOTION": 2.13102391, "ECCENTRICITY": 0.00089977, "INCLINATION": 65.4775, "RA_OF_ASC_NODE": 79.785, "ARG_OF_PERICENTER": 227.5336, "MEAN_ANOMALY": 132.4355, "EPHEMERIS_TYPE": 0, "CLASSIFICATION_TYPE": "U", "NORAD_CAT_ID": 43508, "ELEMENT_SET_NO": 999, "REV_AT_EPOCH": 5852, "BSTAR": 0, "MEAN_MOTION_DOT": 1e-08, "MEAN_MOTION_DDOT": 0}, "tle": {"line1": "1 43508U 18053A   25357.11173016  .00000001  00000+0  00000+0 0  9998", "line2": "2 43508  65.4775  79.7850 0008997 227.5336 132.4355  2.13102391 58528"}}, "geometry": {"type": "Point", "coordinates": [-83.31151229736876, -32.55455967270267]}}, {"type": "Feature", "properties": {"norad_id": 43687, "name": "COSMOS 2529 (757)", "group": "glo-ops", "lat": 34.08992581097083, "lon": -0.5217785648919996, "alt_km": 19132.59676676986, "timestamp": "2025-12-23T20:42:37.336694+00:00", "meta": {"OBJECT_NAME": "COSMOS 2529 (757)", "OBJECT_ID": "2018-086A", "EPOCH": "2025-12-21T19:13:53.194368", "MEAN_MOTION": 2.13102139, "ECCENTRICITY": 0.00069117, "INCLINATION": 64.2926, "RA_OF_ASC_NODE": 198.5821, "ARG_OF_PERICENTER": 253.6836, "MEAN_ANOMALY": 106.3102, "EPHEMERIS_TYPE": 0, "CLASSIFICATION_TYPE": "U", "NORAD_CAT_ID": 43687, "ELEMENT_SET_NO": 999, "REV_AT_EPOCH": 5550, "BSTAR": 0, "MEAN_MOTION_DOT": 9.6e-07, "MEAN_MOTION_DDOT": 0}, "tle": {"line1": "1 43687U 18086A   25355.80131012  .00000096  00000+0  00000+0 0  9990", "line2": "2 43687  64.2926 198.5821 0006911 253.6836 106.3102  2.13102139 55503"}}, "geometry": {"type": "Point", "coordinates": [-0.5217785648919996, 34.08992581097083]}}, {"type": "Feature", "properties": {"norad_id": 44299, "name": "COSMOS 2534 (758)", "group": "glo-ops", "lat": -63.69789609385779, "lon": 122.12557116903285, "alt_km": 19114.571950171157, "timestamp": "2025-12-23T20:42:37.336705+00:00", "meta": {"OBJECT_NAME": "COSMOS 2534 (758)", "OBJECT_ID": "2019-030A", "EPOCH": "2025-12-23T06:38:38.752224", "MEAN_MOTION": 2.13102317, "ECCENTRICITY": 0.00086492, "INCLINATION": 64.3662, "RA_OF_ASC_NODE": 198.5378, "ARG_OF_PERICENTER": 283.8843, "MEAN_ANOMALY": 262.5113, "EPHEMERIS_TYPE": 0, "CLASSIFICATION_TYPE": "U", "NORAD_CAT_ID": 44299, "ELEMENT_SET_NO": 999, "REV_AT_EPOCH": 5117, "BSTAR": 0, "MEAN_MOTION_DOT": 9.5e-07, "MEAN_MOTION_DDOT": 0}, "tle": {"line1": "1 44299U 19030A   25357.27683741  .00000095  00000+0  00000+0 0  9993", "line2": "2 44299  64.3662 198.5378 0008649 283.8843 262.5113  2.13102317 51175"}}, "geometry": {"type": "Point", "coordinates": [122.12557116903285, -63.69789609385779]}}, {"type": "Feature", "properties": {"norad_id": 44850, "name": "COSMOS 2544 (759)", "group": "glo-ops", "lat": -63.16398363714264, "lon": -36.064422650766666, "alt_km": 19100.313983977197, "timestamp": "2025-12-23T20:42:37.336716+00:00", "meta": {"OBJECT_NAME": "COSMOS 2544 (759)", "OBJECT_ID": "2019-088A", "EPOCH": "2025-12-22T02:49:35.422176", "MEAN_MOTION": 2.13102165, "ECCENTRICITY": 0.00143119, "INCLINATION": 65.4645, "RA_OF_ASC_NODE": 79.6449, "ARG_OF_PERICENTER": 250.3028, "MEAN_ANOMALY": 109.5843, "EPHEMERIS_TYPE": 0, "CLASSIFICATION_TYPE": "U", "NORAD_CAT_ID": 44850, "ELEMENT_SET_NO": 999, "REV_AT_EPOCH": 4694, "BSTAR": 0, "MEAN_MOTION_DOT": -3e-08, "MEAN_MOTION_DDOT": 0}, "tle": {"line1": "1 44850U 19088A   25356.11777109 -.00000003  00000+0  00000+0 0  9993", "line2": "2 44850  65.4645  79.6449 0014311 250.3028 109.5843  2.13102165 46946"}}, "geometry": {"type": "Point", "coordinates": [-36.064422650766666, -63.16398363714264]}}]}